<?xml version="1.0" ?>
<gpx xmlns="http://www.topografix.com/GPX/1/1">
 <trk>
  <name>Fullmarathon</name>
  <trkseg>
   <trkpt lat="49.01468" lon="8.52239"/>
   <trkpt lat="49.01462" lon="8.52291"/>
   <trkpt lat="49.01456" lon="8.52333"/>
   <trkpt lat="49.01454" lon="8.52378"/>
   <trkpt lat="49.01457" lon="8.52438"/>
   <trkpt lat="49.01448" lon="8.52447"/>
   <trkpt lat="49.01256" lon="8.52606"/>
   <trkpt lat="49.01217" lon="8.52637"/>
   <trkpt lat="49.01197" lon="8.52647"/>
   <trkpt lat="49.01171" lon="8.52655"/>
   <trkpt lat="49.01146" lon="8.52656"/>
   <trkpt lat="49.01112" lon="8.52671"/>
   <trkpt lat="49.01088" lon="8.52694"/>
   <trkpt lat="49.01049" lon="8.52755"/>
   <trkpt lat="49.01041" lon="8.52767"/>
   <trkpt lat="49.01034" lon="8.5277"/>
   <trkpt lat="49.01021" lon="8.52764"/>
   <trkpt lat="49.00993" lon="8.52657"/>
   <trkpt lat="49.0098" lon="8.52612"/>
   <trkpt lat="49.00965" lon="8.52612"/>
   <trkpt lat="49.00954" lon="8.52617"/>
   <trkpt lat="49.00943" lon="8.52613"/>
   <trkpt lat="49.00936" lon="8.52608"/>
   <trkpt lat="49.00931" lon="8.52597"/>
   <trkpt lat="49.00919" lon="8.52543"/>
   <trkpt lat="49.00911" lon="8.52523"/>
   <trkpt lat="49.00872" lon="8.52456"/>
   <trkpt lat="49.00846" lon="8.52419"/>
   <trkpt lat="49.00836" lon="8.52423"/>
   <trkpt lat="49.00831" lon="8.52421"/>
   <trkpt lat="49.00757" lon="8.52379"/>
   <trkpt lat="49.00734" lon="8.52372"/>
   <trkpt lat="49.00714" lon="8.52371"/>
   <trkpt lat="49.00714" lon="8.52371"/>
   <trkpt lat="49.00673" lon="8.5237"/>
   <trkpt lat="49.00674" lon="8.52485"/>
   <trkpt lat="49.00666" lon="8.52638"/>
   <trkpt lat="49.00661" lon="8.52675"/>
   <trkpt lat="49.00658" lon="8.52715"/>
   <trkpt lat="49.00644" lon="8.52792"/>
   <trkpt lat="49.00619" lon="8.52907"/>
   <trkpt lat="49.00602" lon="8.52972"/>
   <trkpt lat="49.00599" lon="8.52988"/>
   <trkpt lat="49.00607" lon="8.52993"/>
   <trkpt lat="49.00616" lon="8.52998"/>
   <trkpt lat="49.00574" lon="8.53138"/>
   <trkpt lat="49.00567" lon="8.53133"/>
   <trkpt lat="49.00559" lon="8.53154"/>
   <trkpt lat="49.00544" lon="8.532"/>
   <trkpt lat="49.00531" lon="8.53237"/>
   <trkpt lat="49.00538" lon="8.53309"/>
   <trkpt lat="49.00538" lon="8.53374"/>
   <trkpt lat="49.00531" lon="8.5348"/>
   <trkpt lat="49.00522" lon="8.53559"/>
   <trkpt lat="49.00523" lon="8.53622"/>
   <trkpt lat="49.00528" lon="8.53688"/>
   <trkpt lat="49.00536" lon="8.53752"/>
   <trkpt lat="49.00556" lon="8.53905"/>
   <trkpt lat="49.00574" lon="8.54103"/>
   <trkpt lat="49.00592" lon="8.54266"/>
   <trkpt lat="49.00623" lon="8.54403"/>
   <trkpt lat="49.00631" lon="8.54432"/>
   <trkpt lat="49.00669" lon="8.54529"/>
   <trkpt lat="49.00787" lon="8.54739"/>
   <trkpt lat="49.00843" lon="8.54858"/>
   <trkpt lat="49.00871" lon="8.54927"/>
   <trkpt lat="49.00918" lon="8.55084"/>
   <trkpt lat="49.00929" lon="8.55134"/>
   <trkpt lat="49.0093" lon="8.55148"/>
   <trkpt lat="49.00925" lon="8.55226"/>
   <trkpt lat="49.00901" lon="8.55563"/>
   <trkpt lat="49.00889" lon="8.55734"/>
   <trkpt lat="49.00851" lon="8.55757"/>
   <trkpt lat="49.00787" lon="8.55798"/>
   <trkpt lat="49.00737" lon="8.55829"/>
   <trkpt lat="49.00727" lon="8.55835"/>
   <trkpt lat="49.00719" lon="8.55885"/>
   <trkpt lat="49.00712" lon="8.55912"/>
   <trkpt lat="49.00697" lon="8.55956"/>
   <trkpt lat="49.00634" lon="8.5613"/>
   <trkpt lat="49.00635" lon="8.56137"/>
   <trkpt lat="49.00625" lon="8.56163"/>
   <trkpt lat="49.00599" lon="8.56228"/>
   <trkpt lat="49.00597" lon="8.56235"/>
   <trkpt lat="49.00597" lon="8.56235"/>
   <trkpt lat="49.00479" lon="8.5655"/>
   <trkpt lat="49.00454" lon="8.56578"/>
   <trkpt lat="49.00419" lon="8.56596"/>
   <trkpt lat="49.00367" lon="8.56614"/>
   <trkpt lat="49.00315" lon="8.5662"/>
   <trkpt lat="49.00273" lon="8.56624"/>
   <trkpt lat="49.00216" lon="8.56637"/>
   <trkpt lat="49.001" lon="8.56704"/>
   <trkpt lat="49.00079" lon="8.56714"/>
   <trkpt lat="49.00014" lon="8.56716"/>
   <trkpt lat="48.99982" lon="8.56722"/>
   <trkpt lat="48.99955" lon="8.56739"/>
   <trkpt lat="48.99922" lon="8.56761"/>
   <trkpt lat="48.99875" lon="8.56817"/>
   <trkpt lat="48.99841" lon="8.56862"/>
   <trkpt lat="48.99828" lon="8.56884"/>
   <trkpt lat="48.99796" lon="8.56948"/>
   <trkpt lat="48.99746" lon="8.57021"/>
   <trkpt lat="48.99704" lon="8.57082"/>
   <trkpt lat="48.9968" lon="8.57117"/>
   <trkpt lat="48.99632" lon="8.57208"/>
   <trkpt lat="48.99612" lon="8.57266"/>
   <trkpt lat="48.99607" lon="8.57302"/>
   <trkpt lat="48.99607" lon="8.57338"/>
   <trkpt lat="48.99624" lon="8.57391"/>
   <trkpt lat="48.99636" lon="8.57414"/>
   <trkpt lat="48.99674" lon="8.57502"/>
   <trkpt lat="48.99672" lon="8.5754"/>
   <trkpt lat="48.99654" lon="8.57575"/>
   <trkpt lat="48.99594" lon="8.57672"/>
   <trkpt lat="48.99553" lon="8.57761"/>
   <trkpt lat="48.99549" lon="8.57779"/>
   <trkpt lat="48.99543" lon="8.57838"/>
   <trkpt lat="48.99529" lon="8.57888"/>
   <trkpt lat="48.99525" lon="8.57901"/>
   <trkpt lat="48.99525" lon="8.5792"/>
   <trkpt lat="48.99531" lon="8.57963"/>
   <trkpt lat="48.99534" lon="8.57973"/>
   <trkpt lat="48.99501" lon="8.58033"/>
   <trkpt lat="48.99456" lon="8.5805"/>
   <trkpt lat="48.99442" lon="8.58045"/>
   <trkpt lat="48.99287" lon="8.57983"/>
   <trkpt lat="48.99255" lon="8.57957"/>
   <trkpt lat="48.99255" lon="8.57957"/>
   <trkpt lat="48.992" lon="8.579"/>
   <trkpt lat="48.99177" lon="8.57882"/>
   <trkpt lat="48.99148" lon="8.57838"/>
   <trkpt lat="48.9913" lon="8.57789"/>
   <trkpt lat="48.99118" lon="8.57753"/>
   <trkpt lat="48.99103" lon="8.5773"/>
   <trkpt lat="48.9909" lon="8.57707"/>
   <trkpt lat="48.98965" lon="8.57719"/>
   <trkpt lat="48.98849" lon="8.57527"/>
   <trkpt lat="48.98824" lon="8.57482"/>
   <trkpt lat="48.98802" lon="8.5745"/>
   <trkpt lat="48.98759" lon="8.57429"/>
   <trkpt lat="48.98759" lon="8.57429"/>
   <trkpt lat="48.98723" lon="8.57416"/>
   <trkpt lat="48.98704" lon="8.57403"/>
   <trkpt lat="48.98677" lon="8.57374"/>
   <trkpt lat="48.98619" lon="8.57329"/>
   <trkpt lat="48.9857" lon="8.57296"/>
   <trkpt lat="48.9854" lon="8.57282"/>
   <trkpt lat="48.98457" lon="8.57306"/>
   <trkpt lat="48.98435" lon="8.57303"/>
   <trkpt lat="48.98412" lon="8.57292"/>
   <trkpt lat="48.98359" lon="8.57299"/>
   <trkpt lat="48.9834" lon="8.57341"/>
   <trkpt lat="48.98328" lon="8.57358"/>
   <trkpt lat="48.98311" lon="8.57374"/>
   <trkpt lat="48.98281" lon="8.57396"/>
   <trkpt lat="48.98231" lon="8.57416"/>
   <trkpt lat="48.98218" lon="8.57426"/>
   <trkpt lat="48.98205" lon="8.57443"/>
   <trkpt lat="48.9817" lon="8.57438"/>
   <trkpt lat="48.98136" lon="8.57422"/>
   <trkpt lat="48.98082" lon="8.57384"/>
   <trkpt lat="48.98044" lon="8.57365"/>
   <trkpt lat="48.97957" lon="8.5731"/>
   <trkpt lat="48.97937" lon="8.57297"/>
   <trkpt lat="48.97921" lon="8.57294"/>
   <trkpt lat="48.97903" lon="8.57292"/>
   <trkpt lat="48.9789" lon="8.57294"/>
   <trkpt lat="48.97794" lon="8.57331"/>
   <trkpt lat="48.97771" lon="8.57334"/>
   <trkpt lat="48.97758" lon="8.57333"/>
   <trkpt lat="48.977" lon="8.57308"/>
   <trkpt lat="48.97692" lon="8.57302"/>
   <trkpt lat="48.97692" lon="8.57302"/>
   <trkpt lat="48.97574" lon="8.57227"/>
   <trkpt lat="48.97559" lon="8.5722"/>
   <trkpt lat="48.97514" lon="8.57206"/>
   <trkpt lat="48.97418" lon="8.57186"/>
   <trkpt lat="48.9737" lon="8.57214"/>
   <trkpt lat="48.9734" lon="8.57243"/>
   <trkpt lat="48.97313" lon="8.57263"/>
   <trkpt lat="48.97284" lon="8.57277"/>
   <trkpt lat="48.97254" lon="8.57284"/>
   <trkpt lat="48.97233" lon="8.57285"/>
   <trkpt lat="48.97209" lon="8.57282"/>
   <trkpt lat="48.97185" lon="8.57273"/>
   <trkpt lat="48.97164" lon="8.57259"/>
   <trkpt lat="48.9711" lon="8.57224"/>
   <trkpt lat="48.97067" lon="8.57193"/>
   <trkpt lat="48.97037" lon="8.5718"/>
   <trkpt lat="48.96973" lon="8.57182"/>
   <trkpt lat="48.96943" lon="8.57175"/>
   <trkpt lat="48.96905" lon="8.57161"/>
   <trkpt lat="48.96883" lon="8.57156"/>
   <trkpt lat="48.96856" lon="8.57154"/>
   <trkpt lat="48.96743" lon="8.57146"/>
   <trkpt lat="48.96715" lon="8.57144"/>
   <trkpt lat="48.96715" lon="8.57144"/>
   <trkpt lat="48.96615" lon="8.5714"/>
   <trkpt lat="48.96562" lon="8.57132"/>
   <trkpt lat="48.96522" lon="8.57122"/>
   <trkpt lat="48.96496" lon="8.57108"/>
   <trkpt lat="48.96475" lon="8.57092"/>
   <trkpt lat="48.96398" lon="8.5705"/>
   <trkpt lat="48.9632" lon="8.57001"/>
   <trkpt lat="48.96298" lon="8.56988"/>
   <trkpt lat="48.96227" lon="8.56938"/>
   <trkpt lat="48.96192" lon="8.56921"/>
   <trkpt lat="48.96162" lon="8.56911"/>
   <trkpt lat="48.96112" lon="8.56898"/>
   <trkpt lat="48.96057" lon="8.56887"/>
   <trkpt lat="48.9599" lon="8.56884"/>
   <trkpt lat="48.95929" lon="8.56888"/>
   <trkpt lat="48.9593" lon="8.56885"/>
   <trkpt lat="48.95929" lon="8.5688"/>
   <trkpt lat="48.95914" lon="8.56841"/>
   <trkpt lat="48.95915" lon="8.5683"/>
   <trkpt lat="48.95916" lon="8.56819"/>
   <trkpt lat="48.95929" lon="8.56772"/>
   <trkpt lat="48.95938" lon="8.56739"/>
   <trkpt lat="48.95942" lon="8.56709"/>
   <trkpt lat="48.95944" lon="8.56674"/>
   <trkpt lat="48.95939" lon="8.56606"/>
   <trkpt lat="48.95934" lon="8.56565"/>
   <trkpt lat="48.95917" lon="8.56573"/>
   <trkpt lat="48.95917" lon="8.56573"/>
   <trkpt lat="48.95934" lon="8.56565"/>
   <trkpt lat="48.95931" lon="8.56533"/>
   <trkpt lat="48.95929" lon="8.56505"/>
   <trkpt lat="48.95932" lon="8.5646"/>
   <trkpt lat="48.95951" lon="8.56317"/>
   <trkpt lat="48.95962" lon="8.56266"/>
   <trkpt lat="48.95965" lon="8.56227"/>
   <trkpt lat="48.95965" lon="8.56189"/>
   <trkpt lat="48.95955" lon="8.56092"/>
   <trkpt lat="48.95949" lon="8.5606"/>
   <trkpt lat="48.95946" lon="8.56031"/>
   <trkpt lat="48.95945" lon="8.56009"/>
   <trkpt lat="48.95945" lon="8.55997"/>
   <trkpt lat="48.95952" lon="8.55933"/>
   <trkpt lat="48.9592" lon="8.55964"/>
   <trkpt lat="48.95886" lon="8.55984"/>
   <trkpt lat="48.95859" lon="8.55994"/>
   <trkpt lat="48.95825" lon="8.55993"/>
   <trkpt lat="48.95855" lon="8.55953"/>
   <trkpt lat="48.95868" lon="8.55925"/>
   <trkpt lat="48.95882" lon="8.55892"/>
   <trkpt lat="48.95902" lon="8.55826"/>
   <trkpt lat="48.95909" lon="8.55786"/>
   <trkpt lat="48.95921" lon="8.55702"/>
   <trkpt lat="48.95921" lon="8.55667"/>
   <trkpt lat="48.95894" lon="8.55647"/>
   <trkpt lat="48.9589" lon="8.55647"/>
   <trkpt lat="48.95884" lon="8.55649"/>
   <trkpt lat="48.95876" lon="8.55653"/>
   <trkpt lat="48.95867" lon="8.55665"/>
   <trkpt lat="48.95855" lon="8.55687"/>
   <trkpt lat="48.95828" lon="8.55761"/>
   <trkpt lat="48.95804" lon="8.55824"/>
   <trkpt lat="48.95787" lon="8.55848"/>
   <trkpt lat="48.95779" lon="8.55856"/>
   <trkpt lat="48.95769" lon="8.55861"/>
   <trkpt lat="48.95746" lon="8.55866"/>
   <trkpt lat="48.95734" lon="8.55867"/>
   <trkpt lat="48.95711" lon="8.55858"/>
   <trkpt lat="48.95644" lon="8.55831"/>
   <trkpt lat="48.95608" lon="8.55795"/>
   <trkpt lat="48.95598" lon="8.55791"/>
   <trkpt lat="48.95587" lon="8.5579"/>
   <trkpt lat="48.9557" lon="8.55799"/>
   <trkpt lat="48.95556" lon="8.55816"/>
   <trkpt lat="48.95525" lon="8.55871"/>
   <trkpt lat="48.95512" lon="8.55884"/>
   <trkpt lat="48.95491" lon="8.55898"/>
   <trkpt lat="48.95476" lon="8.55901"/>
   <trkpt lat="48.95461" lon="8.559"/>
   <trkpt lat="48.95443" lon="8.55896"/>
   <trkpt lat="48.95431" lon="8.5589"/>
   <trkpt lat="48.95399" lon="8.55865"/>
   <trkpt lat="48.95373" lon="8.55839"/>
   <trkpt lat="48.9536" lon="8.55818"/>
   <trkpt lat="48.95328" lon="8.55733"/>
   <trkpt lat="48.95322" lon="8.55717"/>
   <trkpt lat="48.95237" lon="8.55583"/>
   <trkpt lat="48.9523" lon="8.55443"/>
   <trkpt lat="48.9523" lon="8.55443"/>
   <trkpt lat="48.95227" lon="8.55379"/>
   <trkpt lat="48.95195" lon="8.5499"/>
   <trkpt lat="48.95192" lon="8.54937"/>
   <trkpt lat="48.95172" lon="8.54831"/>
   <trkpt lat="48.95152" lon="8.54707"/>
   <trkpt lat="48.95145" lon="8.54567"/>
   <trkpt lat="48.95133" lon="8.54403"/>
   <trkpt lat="48.95117" lon="8.54319"/>
   <trkpt lat="48.95107" lon="8.54277"/>
   <trkpt lat="48.95082" lon="8.54197"/>
   <trkpt lat="48.95029" lon="8.54096"/>
   <trkpt lat="48.95047" lon="8.54067"/>
   <trkpt lat="48.95104" lon="8.53969"/>
   <trkpt lat="48.95179" lon="8.53853"/>
   <trkpt lat="48.95193" lon="8.53841"/>
   <trkpt lat="48.95204" lon="8.53835"/>
   <trkpt lat="48.95238" lon="8.53826"/>
   <trkpt lat="48.95321" lon="8.53831"/>
   <trkpt lat="48.95369" lon="8.53812"/>
   <trkpt lat="48.95375" lon="8.53799"/>
   <trkpt lat="48.95382" lon="8.53775"/>
   <trkpt lat="48.95386" lon="8.53761"/>
   <trkpt lat="48.95444" lon="8.53797"/>
   <trkpt lat="48.95526" lon="8.53833"/>
   <trkpt lat="48.95664" lon="8.53902"/>
   <trkpt lat="48.95698" lon="8.53922"/>
   <trkpt lat="48.95698" lon="8.53922"/>
   <trkpt lat="48.9578" lon="8.53978"/>
   <trkpt lat="48.95876" lon="8.54044"/>
   <trkpt lat="48.96" lon="8.54146"/>
   <trkpt lat="48.96053" lon="8.54194"/>
   <trkpt lat="48.96081" lon="8.54219"/>
   <trkpt lat="48.96148" lon="8.54288"/>
   <trkpt lat="48.96157" lon="8.54294"/>
   <trkpt lat="48.96214" lon="8.54355"/>
   <trkpt lat="48.96221" lon="8.54365"/>
   <trkpt lat="48.96321" lon="8.54478"/>
   <trkpt lat="48.96368" lon="8.54548"/>
   <trkpt lat="48.96387" lon="8.54585"/>
   <trkpt lat="48.96398" lon="8.54611"/>
   <trkpt lat="48.9642" lon="8.54686"/>
   <trkpt lat="48.96444" lon="8.54767"/>
   <trkpt lat="48.96473" lon="8.5486"/>
   <trkpt lat="48.96604" lon="8.55153"/>
   <trkpt lat="48.96626" lon="8.55215"/>
   <trkpt lat="48.9664" lon="8.55273"/>
   <trkpt lat="48.9665" lon="8.55339"/>
   <trkpt lat="48.96654" lon="8.5537"/>
   <trkpt lat="48.96652" lon="8.55373"/>
   <trkpt lat="48.9665" lon="8.55381"/>
   <trkpt lat="48.9665" lon="8.55389"/>
   <trkpt lat="48.96653" lon="8.554"/>
   <trkpt lat="48.96659" lon="8.55407"/>
   <trkpt lat="48.96661" lon="8.55408"/>
   <trkpt lat="48.96658" lon="8.55417"/>
   <trkpt lat="48.96657" lon="8.55428"/>
   <trkpt lat="48.96656" lon="8.55456"/>
   <trkpt lat="48.96651" lon="8.5547"/>
   <trkpt lat="48.96645" lon="8.5548"/>
   <trkpt lat="48.96643" lon="8.55497"/>
   <trkpt lat="48.96646" lon="8.55514"/>
   <trkpt lat="48.96648" lon="8.55518"/>
   <trkpt lat="48.9664" lon="8.55535"/>
   <trkpt lat="48.96631" lon="8.5554"/>
   <trkpt lat="48.96593" lon="8.55564"/>
   <trkpt lat="48.96616" lon="8.55629"/>
   <trkpt lat="48.96642" lon="8.55735"/>
   <trkpt lat="48.96649" lon="8.55766"/>
   <trkpt lat="48.96652" lon="8.55778"/>
   <trkpt lat="48.96653" lon="8.55782"/>
   <trkpt lat="48.96662" lon="8.55832"/>
   <trkpt lat="48.96679" lon="8.55845"/>
   <trkpt lat="48.96702" lon="8.55855"/>
   <trkpt lat="48.96739" lon="8.55856"/>
   <trkpt lat="48.96743" lon="8.55854"/>
   <trkpt lat="48.96768" lon="8.55835"/>
   <trkpt lat="48.96798" lon="8.55816"/>
   <trkpt lat="48.96847" lon="8.5574"/>
   <trkpt lat="48.96936" lon="8.55595"/>
   <trkpt lat="48.97056" lon="8.55341"/>
   <trkpt lat="48.97099" lon="8.5523"/>
   <trkpt lat="48.9712" lon="8.55198"/>
   <trkpt lat="48.97168" lon="8.55165"/>
   <trkpt lat="48.97208" lon="8.55149"/>
   <trkpt lat="48.97249" lon="8.55138"/>
   <trkpt lat="48.97388" lon="8.55119"/>
   <trkpt lat="48.97421" lon="8.5512"/>
   <trkpt lat="48.97476" lon="8.55143"/>
   <trkpt lat="48.97536" lon="8.55177"/>
   <trkpt lat="48.97649" lon="8.55232"/>
   <trkpt lat="48.97691" lon="8.55252"/>
   <trkpt lat="48.97765" lon="8.55285"/>
   <trkpt lat="48.97835" lon="8.55323"/>
   <trkpt lat="48.97907" lon="8.5537"/>
   <trkpt lat="48.97958" lon="8.55392"/>
   <trkpt lat="48.98008" lon="8.55389"/>
   <trkpt lat="48.98037" lon="8.55392"/>
   <trkpt lat="48.98073" lon="8.55399"/>
   <trkpt lat="48.98096" lon="8.55394"/>
   <trkpt lat="48.98106" lon="8.55394"/>
   <trkpt lat="48.98118" lon="8.55386"/>
   <trkpt lat="48.98137" lon="8.5537"/>
   <trkpt lat="48.98164" lon="8.55339"/>
   <trkpt lat="48.98194" lon="8.5532"/>
   <trkpt lat="48.98216" lon="8.55306"/>
   <trkpt lat="48.98225" lon="8.55297"/>
   <trkpt lat="48.98238" lon="8.5528"/>
   <trkpt lat="48.98291" lon="8.55201"/>
   <trkpt lat="48.9833" lon="8.55138"/>
   <trkpt lat="48.9836" lon="8.55078"/>
   <trkpt lat="48.98385" lon="8.55018"/>
   <trkpt lat="48.98393" lon="8.55"/>
   <trkpt lat="48.98444" lon="8.54914"/>
   <trkpt lat="48.98444" lon="8.54914"/>
   <trkpt lat="48.98548" lon="8.54738"/>
   <trkpt lat="48.98563" lon="8.54724"/>
   <trkpt lat="48.98578" lon="8.54719"/>
   <trkpt lat="48.98612" lon="8.54726"/>
   <trkpt lat="48.98623" lon="8.54723"/>
   <trkpt lat="48.98665" lon="8.5468"/>
   <trkpt lat="48.98673" lon="8.54672"/>
   <trkpt lat="48.98684" lon="8.54668"/>
   <trkpt lat="48.9872" lon="8.54587"/>
   <trkpt lat="48.98752" lon="8.5448"/>
   <trkpt lat="48.98784" lon="8.5437"/>
   <trkpt lat="48.98782" lon="8.54365"/>
   <trkpt lat="48.98776" lon="8.54346"/>
   <trkpt lat="48.98769" lon="8.54329"/>
   <trkpt lat="48.9891" lon="8.54153"/>
   <trkpt lat="48.98966" lon="8.54075"/>
   <trkpt lat="48.98984" lon="8.54058"/>
   <trkpt lat="48.99" lon="8.54047"/>
   <trkpt lat="48.99128" lon="8.54004"/>
   <trkpt lat="48.99182" lon="8.53986"/>
   <trkpt lat="48.99236" lon="8.5396"/>
   <trkpt lat="48.99263" lon="8.53948"/>
   <trkpt lat="48.99329" lon="8.53916"/>
   <trkpt lat="48.99394" lon="8.5388"/>
   <trkpt lat="48.99464" lon="8.53837"/>
   <trkpt lat="48.99484" lon="8.53829"/>
   <trkpt lat="48.99538" lon="8.53813"/>
   <trkpt lat="48.99609" lon="8.53789"/>
   <trkpt lat="48.99632" lon="8.53782"/>
   <trkpt lat="48.99639" lon="8.53781"/>
   <trkpt lat="48.99641" lon="8.53785"/>
   <trkpt lat="48.99651" lon="8.53858"/>
   <trkpt lat="48.99655" lon="8.53869"/>
   <trkpt lat="48.99657" lon="8.53872"/>
   <trkpt lat="48.99869" lon="8.5381"/>
   <trkpt lat="48.99925" lon="8.53795"/>
   <trkpt lat="48.99925" lon="8.53795"/>
   <trkpt lat="48.99963" lon="8.53783"/>
   <trkpt lat="48.99998" lon="8.53764"/>
   <trkpt lat="49.00031" lon="8.53748"/>
   <trkpt lat="49.00059" lon="8.5373"/>
   <trkpt lat="49.00153" lon="8.53669"/>
   <trkpt lat="49.00209" lon="8.53611"/>
   <trkpt lat="49.00232" lon="8.53584"/>
   <trkpt lat="49.00344" lon="8.53449"/>
   <trkpt lat="49.00397" lon="8.5337"/>
   <trkpt lat="49.00465" lon="8.53244"/>
   <trkpt lat="49.00511" lon="8.5315"/>
   <trkpt lat="49.00521" lon="8.53122"/>
   <trkpt lat="49.00491" lon="8.52944"/>
   <trkpt lat="49.00491" lon="8.52944"/>
   <trkpt lat="49.00489" lon="8.52936"/>
   <trkpt lat="49.00529" lon="8.52936"/>
   <trkpt lat="49.00566" lon="8.52939"/>
   <trkpt lat="49.00579" lon="8.52952"/>
   <trkpt lat="49.00596" lon="8.52903"/>
   <trkpt lat="49.00605" lon="8.52861"/>
   <trkpt lat="49.00617" lon="8.52782"/>
   <trkpt lat="49.00628" lon="8.52707"/>
   <trkpt lat="49.00633" lon="8.52655"/>
   <trkpt lat="49.00643" lon="8.52556"/>
   <trkpt lat="49.00649" lon="8.52462"/>
   <trkpt lat="49.00647" lon="8.52343"/>
   <trkpt lat="49.00641" lon="8.52202"/>
   <trkpt lat="49.00633" lon="8.52126"/>
   <trkpt lat="49.00632" lon="8.52091"/>
   <trkpt lat="49.00619" lon="8.52025"/>
   <trkpt lat="49.00615" lon="8.52002"/>
   <trkpt lat="49.00611" lon="8.5199"/>
   <trkpt lat="49.00597" lon="8.52005"/>
   <trkpt lat="49.0058" lon="8.52011"/>
   <trkpt lat="49.00561" lon="8.52004"/>
   <trkpt lat="49.00498" lon="8.5198"/>
   <trkpt lat="49.0046" lon="8.51968"/>
   <trkpt lat="49.0046" lon="8.51968"/>
   <trkpt lat="49.00457" lon="8.51967"/>
   <trkpt lat="49.00461" lon="8.51942"/>
   <trkpt lat="49.00418" lon="8.51908"/>
   <trkpt lat="49.00407" lon="8.51896"/>
   <trkpt lat="49.00392" lon="8.5188"/>
   <trkpt lat="49.00422" lon="8.51742"/>
   <trkpt lat="49.00315" lon="8.51694"/>
   <trkpt lat="49.0022" lon="8.51676"/>
   <trkpt lat="49.00212" lon="8.51673"/>
   <trkpt lat="49.00204" lon="8.51666"/>
   <trkpt lat="49.00165" lon="8.51636"/>
   <trkpt lat="49.00117" lon="8.51609"/>
   <trkpt lat="49.00074" lon="8.51593"/>
   <trkpt lat="48.99994" lon="8.51558"/>
   <trkpt lat="48.99966" lon="8.51543"/>
   <trkpt lat="48.99929" lon="8.5151"/>
   <trkpt lat="48.99916" lon="8.51491"/>
   <trkpt lat="48.9987" lon="8.51439"/>
   <trkpt lat="48.99832" lon="8.51407"/>
   <trkpt lat="48.99785" lon="8.51372"/>
   <trkpt lat="48.99739" lon="8.51338"/>
   <trkpt lat="48.99719" lon="8.51326"/>
   <trkpt lat="48.99689" lon="8.51314"/>
   <trkpt lat="48.99634" lon="8.51301"/>
   <trkpt lat="48.99608" lon="8.51288"/>
   <trkpt lat="48.99577" lon="8.51269"/>
   <trkpt lat="48.99505" lon="8.51209"/>
   <trkpt lat="48.99472" lon="8.51191"/>
   <trkpt lat="48.9946" lon="8.51188"/>
   <trkpt lat="48.99422" lon="8.51189"/>
   <trkpt lat="48.99396" lon="8.51175"/>
   <trkpt lat="48.9929" lon="8.51122"/>
   <trkpt lat="48.99274" lon="8.51116"/>
   <trkpt lat="48.99249" lon="8.51119"/>
   <trkpt lat="48.99125" lon="8.51096"/>
   <trkpt lat="48.9911" lon="8.51096"/>
   <trkpt lat="48.99076" lon="8.51097"/>
   <trkpt lat="48.9907" lon="8.51099"/>
   <trkpt lat="48.98999" lon="8.51123"/>
   <trkpt lat="48.98945" lon="8.51157"/>
   <trkpt lat="48.98901" lon="8.51193"/>
   <trkpt lat="48.9888" lon="8.51193"/>
   <trkpt lat="48.98769" lon="8.51144"/>
   <trkpt lat="48.98718" lon="8.51126"/>
   <trkpt lat="48.98629" lon="8.51097"/>
   <trkpt lat="48.98629" lon="8.51097"/>
   <trkpt lat="48.98621" lon="8.51094"/>
   <trkpt lat="48.98581" lon="8.51061"/>
   <trkpt lat="48.98551" lon="8.51035"/>
   <trkpt lat="48.9852" lon="8.50995"/>
   <trkpt lat="48.98448" lon="8.50894"/>
   <trkpt lat="48.98424" lon="8.5085"/>
   <trkpt lat="48.98418" lon="8.50831"/>
   <trkpt lat="48.98416" lon="8.50811"/>
   <trkpt lat="48.98416" lon="8.50713"/>
   <trkpt lat="48.98411" lon="8.50666"/>
   <trkpt lat="48.9839" lon="8.50564"/>
   <trkpt lat="48.98438" lon="8.50461"/>
   <trkpt lat="48.98543" lon="8.50406"/>
   <trkpt lat="48.98553" lon="8.50398"/>
   <trkpt lat="48.98584" lon="8.50363"/>
   <trkpt lat="48.98616" lon="8.50319"/>
   <trkpt lat="48.98629" lon="8.5031"/>
   <trkpt lat="48.98704" lon="8.50274"/>
   <trkpt lat="48.98873" lon="8.50207"/>
   <trkpt lat="48.98893" lon="8.50194"/>
   <trkpt lat="48.98901" lon="8.50196"/>
   <trkpt lat="48.98915" lon="8.50189"/>
   <trkpt lat="48.98966" lon="8.50152"/>
   <trkpt lat="48.99001" lon="8.5012"/>
   <trkpt lat="48.99092" lon="8.49979"/>
   <trkpt lat="48.99127" lon="8.49928"/>
   <trkpt lat="48.99153" lon="8.4988"/>
   <trkpt lat="48.99175" lon="8.49875"/>
   <trkpt lat="48.99196" lon="8.49867"/>
   <trkpt lat="48.9922" lon="8.4986"/>
   <trkpt lat="48.9924" lon="8.49858"/>
   <trkpt lat="48.99305" lon="8.49862"/>
   <trkpt lat="48.99363" lon="8.49871"/>
   <trkpt lat="48.99412" lon="8.49888"/>
   <trkpt lat="48.99453" lon="8.49906"/>
   <trkpt lat="48.99473" lon="8.49918"/>
   <trkpt lat="48.99497" lon="8.49929"/>
   <trkpt lat="48.99554" lon="8.49926"/>
   <trkpt lat="48.99596" lon="8.49916"/>
   <trkpt lat="48.9961" lon="8.49909"/>
   <trkpt lat="48.99631" lon="8.499"/>
   <trkpt lat="48.99693" lon="8.4988"/>
   <trkpt lat="48.99718" lon="8.49874"/>
   <trkpt lat="48.99729" lon="8.49873"/>
   <trkpt lat="48.99744" lon="8.49873"/>
   <trkpt lat="48.99758" lon="8.49876"/>
   <trkpt lat="48.99802" lon="8.49893"/>
   <trkpt lat="48.9983" lon="8.499"/>
   <trkpt lat="48.99839" lon="8.49913"/>
   <trkpt lat="48.99851" lon="8.49944"/>
   <trkpt lat="48.99851" lon="8.49944"/>
   <trkpt lat="48.99873" lon="8.49995"/>
   <trkpt lat="48.99887" lon="8.50046"/>
   <trkpt lat="48.99895" lon="8.50099"/>
   <trkpt lat="48.99915" lon="8.50145"/>
   <trkpt lat="48.99939" lon="8.50187"/>
   <trkpt lat="48.99967" lon="8.50215"/>
   <trkpt lat="49.00001" lon="8.50267"/>
   <trkpt lat="49.00022" lon="8.50295"/>
   <trkpt lat="49.00039" lon="8.50304"/>
   <trkpt lat="49.00068" lon="8.50301"/>
   <trkpt lat="49.00077" lon="8.50294"/>
   <trkpt lat="49.00085" lon="8.50292"/>
   <trkpt lat="49.001" lon="8.50289"/>
   <trkpt lat="49.0012" lon="8.5029"/>
   <trkpt lat="49.00185" lon="8.5029"/>
   <trkpt lat="49.00248" lon="8.50283"/>
   <trkpt lat="49.00332" lon="8.50254"/>
   <trkpt lat="49.00404" lon="8.50212"/>
   <trkpt lat="49.00416" lon="8.5026"/>
   <trkpt lat="49.00418" lon="8.50265"/>
   <trkpt lat="49.00423" lon="8.5027"/>
   <trkpt lat="49.00427" lon="8.50272"/>
   <trkpt lat="49.00425" lon="8.50141"/>
   <trkpt lat="49.00429" lon="8.49885"/>
   <trkpt lat="49.00433" lon="8.49829"/>
   <trkpt lat="49.00435" lon="8.49797"/>
   <trkpt lat="49.00468" lon="8.49785"/>
   <trkpt lat="49.0048" lon="8.49787"/>
   <trkpt lat="49.00475" lon="8.49794"/>
   <trkpt lat="49.00459" lon="8.49797"/>
   <trkpt lat="49.00457" lon="8.49799"/>
   <trkpt lat="49.00455" lon="8.49804"/>
   <trkpt lat="49.00457" lon="8.49808"/>
   <trkpt lat="49.00459" lon="8.49823"/>
   <trkpt lat="49.00457" lon="8.49826"/>
   <trkpt lat="49.00453" lon="8.49827"/>
   <trkpt lat="49.00443" lon="8.49827"/>
   <trkpt lat="49.00443" lon="8.49827"/>
   <trkpt lat="49.00456" lon="8.49827"/>
   <trkpt lat="49.00458" lon="8.49825"/>
   <trkpt lat="49.00458" lon="8.49812"/>
   <trkpt lat="49.00456" lon="8.49801"/>
   <trkpt lat="49.00458" lon="8.49798"/>
   <trkpt lat="49.00468" lon="8.49795"/>
   <trkpt lat="49.00478" lon="8.49792"/>
   <trkpt lat="49.0048" lon="8.49787"/>
   <trkpt lat="49.00501" lon="8.49791"/>
   <trkpt lat="49.00534" lon="8.49797"/>
   <trkpt lat="49.00538" lon="8.49794"/>
   <trkpt lat="49.00567" lon="8.49772"/>
   <trkpt lat="49.00571" lon="8.49765"/>
   <trkpt lat="49.00585" lon="8.49696"/>
   <trkpt lat="49.00592" lon="8.49685"/>
   <trkpt lat="49.00602" lon="8.4968"/>
   <trkpt lat="49.00694" lon="8.49665"/>
   <trkpt lat="49.00699" lon="8.49608"/>
   <trkpt lat="49.00702" lon="8.4958"/>
   <trkpt lat="49.00706" lon="8.49563"/>
   <trkpt lat="49.00714" lon="8.49549"/>
   <trkpt lat="49.0072" lon="8.49544"/>
   <trkpt lat="49.00746" lon="8.49527"/>
   <trkpt lat="49.00776" lon="8.49517"/>
   <trkpt lat="49.00796" lon="8.49513"/>
   <trkpt lat="49.00814" lon="8.49511"/>
   <trkpt lat="49.00841" lon="8.49514"/>
   <trkpt lat="49.00861" lon="8.49514"/>
   <trkpt lat="49.00884" lon="8.49517"/>
   <trkpt lat="49.00907" lon="8.49524"/>
   <trkpt lat="49.00943" lon="8.49544"/>
   <trkpt lat="49.00951" lon="8.49546"/>
   <trkpt lat="49.00963" lon="8.49546"/>
   <trkpt lat="49.00976" lon="8.49542"/>
   <trkpt lat="49.01018" lon="8.49525"/>
   <trkpt lat="49.01069" lon="8.49508"/>
   <trkpt lat="49.01091" lon="8.49503"/>
   <trkpt lat="49.01174" lon="8.49474"/>
   <trkpt lat="49.01212" lon="8.49461"/>
   <trkpt lat="49.01268" lon="8.49447"/>
   <trkpt lat="49.01317" lon="8.49443"/>
   <trkpt lat="49.01535" lon="8.49414"/>
   <trkpt lat="49.01569" lon="8.4941"/>
   <trkpt lat="49.01583" lon="8.49411"/>
   <trkpt lat="49.016" lon="8.49417"/>
   <trkpt lat="49.01599" lon="8.49428"/>
   <trkpt lat="49.01686" lon="8.49451"/>
   <trkpt lat="49.01727" lon="8.49465"/>
   <trkpt lat="49.01766" lon="8.49486"/>
   <trkpt lat="49.01805" lon="8.49512"/>
   <trkpt lat="49.01899" lon="8.49553"/>
   <trkpt lat="49.01922" lon="8.49561"/>
   <trkpt lat="49.01937" lon="8.49571"/>
   <trkpt lat="49.01976" lon="8.49603"/>
   <trkpt lat="49.0204" lon="8.49649"/>
   <trkpt lat="49.02064" lon="8.49662"/>
   <trkpt lat="49.02064" lon="8.49662"/>
   <trkpt lat="49.02125" lon="8.49673"/>
   <trkpt lat="49.02152" lon="8.49679"/>
   <trkpt lat="49.02156" lon="8.49663"/>
   <trkpt lat="49.02201" lon="8.49669"/>
   <trkpt lat="49.02223" lon="8.49677"/>
   <trkpt lat="49.02276" lon="8.49663"/>
   <trkpt lat="49.02284" lon="8.49659"/>
   <trkpt lat="49.02315" lon="8.4963"/>
   <trkpt lat="49.02359" lon="8.49599"/>
   <trkpt lat="49.02369" lon="8.49592"/>
   <trkpt lat="49.02475" lon="8.49515"/>
   <trkpt lat="49.02495" lon="8.49502"/>
   <trkpt lat="49.02512" lon="8.49496"/>
   <trkpt lat="49.02538" lon="8.49486"/>
   <trkpt lat="49.02563" lon="8.49476"/>
   <trkpt lat="49.02619" lon="8.49441"/>
   <trkpt lat="49.02726" lon="8.49373"/>
   <trkpt lat="49.02748" lon="8.49354"/>
   <trkpt lat="49.02772" lon="8.49325"/>
   <trkpt lat="49.02832" lon="8.49268"/>
   <trkpt lat="49.02841" lon="8.49262"/>
   <trkpt lat="49.02848" lon="8.49253"/>
   <trkpt lat="49.02855" lon="8.49243"/>
   <trkpt lat="49.02867" lon="8.49227"/>
   <trkpt lat="49.02876" lon="8.4924"/>
   <trkpt lat="49.02911" lon="8.49276"/>
   <trkpt lat="49.02993" lon="8.49353"/>
   <trkpt lat="49.03122" lon="8.49475"/>
   <trkpt lat="49.03175" lon="8.4953"/>
   <trkpt lat="49.03201" lon="8.49552"/>
   <trkpt lat="49.03339" lon="8.49679"/>
   <trkpt lat="49.03436" lon="8.49771"/>
   <trkpt lat="49.03493" lon="8.49824"/>
   <trkpt lat="49.03541" lon="8.49875"/>
   <trkpt lat="49.03696" lon="8.50018"/>
   <trkpt lat="49.03696" lon="8.50018"/>
   <trkpt lat="49.04059" lon="8.50357"/>
   <trkpt lat="49.04155" lon="8.50444"/>
   <trkpt lat="49.04245" lon="8.5053"/>
   <trkpt lat="49.04497" lon="8.50769"/>
   <trkpt lat="49.04511" lon="8.50783"/>
   <trkpt lat="49.04717" lon="8.50979"/>
   <trkpt lat="49.04741" lon="8.50995"/>
   <trkpt lat="49.04858" lon="8.51104"/>
   <trkpt lat="49.04925" lon="8.5117"/>
   <trkpt lat="49.05043" lon="8.51282"/>
   <trkpt lat="49.05155" lon="8.51376"/>
   <trkpt lat="49.05155" lon="8.51376"/>
   <trkpt lat="49.05172" lon="8.51389"/>
   <trkpt lat="49.05178" lon="8.51388"/>
   <trkpt lat="49.05191" lon="8.51375"/>
   <trkpt lat="49.0521" lon="8.51345"/>
   <trkpt lat="49.05213" lon="8.51342"/>
   <trkpt lat="49.0522" lon="8.51342"/>
   <trkpt lat="49.05228" lon="8.51345"/>
   <trkpt lat="49.05232" lon="8.51355"/>
   <trkpt lat="49.05233" lon="8.51365"/>
   <trkpt lat="49.05228" lon="8.5138"/>
   <trkpt lat="49.05216" lon="8.51388"/>
   <trkpt lat="49.05209" lon="8.51397"/>
   <trkpt lat="49.05205" lon="8.51395"/>
   <trkpt lat="49.05197" lon="8.51394"/>
   <trkpt lat="49.05188" lon="8.51396"/>
   <trkpt lat="49.05176" lon="8.51406"/>
   <trkpt lat="49.05172" lon="8.51413"/>
   <trkpt lat="49.05165" lon="8.51428"/>
   <trkpt lat="49.05132" lon="8.51477"/>
   <trkpt lat="49.05112" lon="8.51508"/>
   <trkpt lat="49.05055" lon="8.51622"/>
   <trkpt lat="49.05028" lon="8.51681"/>
   <trkpt lat="49.04986" lon="8.51766"/>
   <trkpt lat="49.04964" lon="8.51791"/>
   <trkpt lat="49.04901" lon="8.51849"/>
   <trkpt lat="49.0489" lon="8.51861"/>
   <trkpt lat="49.04884" lon="8.51871"/>
   <trkpt lat="49.04882" lon="8.51886"/>
   <trkpt lat="49.04866" lon="8.51879"/>
   <trkpt lat="49.0485" lon="8.5185"/>
   <trkpt lat="49.04809" lon="8.51742"/>
   <trkpt lat="49.04697" lon="8.51837"/>
   <trkpt lat="49.04686" lon="8.5184"/>
   <trkpt lat="49.04677" lon="8.51841"/>
   <trkpt lat="49.04668" lon="8.51848"/>
   <trkpt lat="49.04661" lon="8.51864"/>
   <trkpt lat="49.04653" lon="8.51885"/>
   <trkpt lat="49.04541" lon="8.51985"/>
   <trkpt lat="49.04451" lon="8.51881"/>
   <trkpt lat="49.04399" lon="8.51821"/>
   <trkpt lat="49.04391" lon="8.51838"/>
   <trkpt lat="49.04297" lon="8.52083"/>
   <trkpt lat="49.04296" lon="8.52086"/>
   <trkpt lat="49.04163" lon="8.51972"/>
   <trkpt lat="49.04061" lon="8.51902"/>
   <trkpt lat="49.04046" lon="8.51894"/>
   <trkpt lat="49.03955" lon="8.5182"/>
   <trkpt lat="49.03946" lon="8.51815"/>
   <trkpt lat="49.03941" lon="8.51817"/>
   <trkpt lat="49.03886" lon="8.51875"/>
   <trkpt lat="49.03864" lon="8.51899"/>
   <trkpt lat="49.03838" lon="8.5198"/>
   <trkpt lat="49.0383" lon="8.52005"/>
   <trkpt lat="49.03566" lon="8.51784"/>
   <trkpt lat="49.03465" lon="8.51699"/>
   <trkpt lat="49.034" lon="8.5164"/>
   <trkpt lat="49.03335" lon="8.51585"/>
   <trkpt lat="49.03278" lon="8.51513"/>
   <trkpt lat="49.03309" lon="8.51465"/>
   <trkpt lat="49.03298" lon="8.51455"/>
   <trkpt lat="49.03221" lon="8.51395"/>
   <trkpt lat="49.03196" lon="8.51378"/>
   <trkpt lat="49.03196" lon="8.51378"/>
   <trkpt lat="49.03171" lon="8.5136"/>
   <trkpt lat="49.0315" lon="8.51353"/>
   <trkpt lat="49.03121" lon="8.51348"/>
   <trkpt lat="49.03093" lon="8.51347"/>
   <trkpt lat="49.03078" lon="8.51343"/>
   <trkpt lat="49.03066" lon="8.51336"/>
   <trkpt lat="49.03051" lon="8.51319"/>
   <trkpt lat="49.02947" lon="8.5118"/>
   <trkpt lat="49.02916" lon="8.51131"/>
   <trkpt lat="49.02911" lon="8.51112"/>
   <trkpt lat="49.02905" lon="8.5108"/>
   <trkpt lat="49.02901" lon="8.51061"/>
   <trkpt lat="49.02892" lon="8.51043"/>
   <trkpt lat="49.02883" lon="8.51018"/>
   <trkpt lat="49.0286" lon="8.50899"/>
   <trkpt lat="49.02851" lon="8.5087"/>
   <trkpt lat="49.02823" lon="8.50804"/>
   <trkpt lat="49.02813" lon="8.50789"/>
   <trkpt lat="49.02764" lon="8.50875"/>
   <trkpt lat="49.0273" lon="8.5095"/>
   <trkpt lat="49.02685" lon="8.51064"/>
   <trkpt lat="49.02715" lon="8.51095"/>
   <trkpt lat="49.02689" lon="8.51164"/>
   <trkpt lat="49.02672" lon="8.51211"/>
   <trkpt lat="49.02684" lon="8.51236"/>
   <trkpt lat="49.02696" lon="8.51271"/>
   <trkpt lat="49.02675" lon="8.51295"/>
   <trkpt lat="49.02637" lon="8.51374"/>
   <trkpt lat="49.02619" lon="8.51431"/>
   <trkpt lat="49.02605" lon="8.51498"/>
   <trkpt lat="49.02592" lon="8.51582"/>
   <trkpt lat="49.02569" lon="8.51657"/>
   <trkpt lat="49.02534" lon="8.5177"/>
   <trkpt lat="49.02522" lon="8.51814"/>
   <trkpt lat="49.02522" lon="8.51814"/>
   <trkpt lat="49.02516" lon="8.51823"/>
   <trkpt lat="49.025" lon="8.51853"/>
   <trkpt lat="49.02485" lon="8.51875"/>
   <trkpt lat="49.0247" lon="8.51884"/>
   <trkpt lat="49.02456" lon="8.519"/>
   <trkpt lat="49.02449" lon="8.51912"/>
   <trkpt lat="49.02436" lon="8.51928"/>
   <trkpt lat="49.02394" lon="8.51938"/>
   <trkpt lat="49.02367" lon="8.51939"/>
   <trkpt lat="49.02333" lon="8.51945"/>
   <trkpt lat="49.02302" lon="8.51952"/>
   <trkpt lat="49.02275" lon="8.51936"/>
   <trkpt lat="49.02227" lon="8.51906"/>
   <trkpt lat="49.02188" lon="8.51885"/>
   <trkpt lat="49.02147" lon="8.51882"/>
   <trkpt lat="49.02103" lon="8.51899"/>
   <trkpt lat="49.02082" lon="8.51912"/>
   <trkpt lat="49.02074" lon="8.51922"/>
   <trkpt lat="49.02068" lon="8.5195"/>
   <trkpt lat="49.02048" lon="8.51988"/>
   <trkpt lat="49.02041" lon="8.52022"/>
   <trkpt lat="49.0204" lon="8.52059"/>
   <trkpt lat="49.02064" lon="8.52148"/>
   <trkpt lat="49.02073" lon="8.52168"/>
   <trkpt lat="49.0204" lon="8.52188"/>
   <trkpt lat="49.02009" lon="8.52216"/>
   <trkpt lat="49.01991" lon="8.52227"/>
   <trkpt lat="49.01975" lon="8.52232"/>
   <trkpt lat="49.01966" lon="8.52234"/>
   <trkpt lat="49.01945" lon="8.52233"/>
   <trkpt lat="49.01928" lon="8.52235"/>
   <trkpt lat="49.01898" lon="8.52226"/>
   <trkpt lat="49.01861" lon="8.52205"/>
   <trkpt lat="49.01851" lon="8.52206"/>
   <trkpt lat="49.01851" lon="8.52206"/>
   <trkpt lat="49.01825" lon="8.52211"/>
   <trkpt lat="49.01815" lon="8.52214"/>
   <trkpt lat="49.01749" lon="8.52207"/>
   <trkpt lat="49.01694" lon="8.52238"/>
   <trkpt lat="49.01655" lon="8.52259"/>
   <trkpt lat="49.01616" lon="8.52282"/>
   <trkpt lat="49.01569" lon="8.52326"/>
   <trkpt lat="49.01485" lon="8.52411"/>
   <trkpt lat="49.01457" lon="8.52438"/>
   <trkpt lat="49.01454" lon="8.52378"/>
   <trkpt lat="49.01456" lon="8.52333"/>
   <trkpt lat="49.01462" lon="8.52291"/>
   <trkpt lat="49.0147" lon="8.52218"/>
  </trkseg>
 </trk>
</gpx>
